OBJECT_NAME,OBJECT_ID,EPOCH,MEAN_MOTION,ECCENTRICITY,INCLINATION,RA_OF_ASC_NODE,ARG_OF_PERICENTER,MEAN_ANOMALY,EPHEMERIS_TYPE,CLASSIFICATION_TYPE,NORAD_CAT_ID,ELEMENT_SET_NO,REV_AT_EPOCH,BSTAR,MEAN_MOTION_DOT,MEAN_MOTION_DDOT
ONEWEB-0667,2023-029AH,2026-07-01T15:34:07.776768,13.20772410,.00018425,87.9201,271.5499,101.9261,258.2079,0,U,55827,999,16305,.23117875E-3,.107E-5,0
ONEWEB-0669,2023-029AJ,2026-07-01T15:26:50.888256,13.20773080,.00019358,87.9195,271.5607,84.0422,276.0932,0,U,55828,999,16305,.630105E-6,.13E-6,0
ONEWEB-0670,2023-029AK,2026-07-01T07:03:27.987552,13.14501131,.00015484,87.8964,286.9286,98.4814,261.6491,0,U,55829,999,16128,.41256326E-3,.166E-5,0
ONEWEB-0671,2023-029AL,2026-07-01T18:31:37.545312,13.19725665,.00017766,87.9185,302.0706,103.3488,256.7843,0,U,55830,999,16082,-.30983431E-4,.1E-7,0
ONEWEB-0672,2023-029AM,2026-07-01T22:35:55.222368,13.20772610,.00021987,87.9196,271.4951,94.8607,265.2777,0,U,55831,999,16309,.10959721E-3,.58E-6,0
ONEWEB-0673,2023-029AN,2026-07-01T17:58:37.851744,13.19724786,.00017922,87.9190,302.0679,101.4463,258.6871,0,U,55832,999,16082,.11495387E-3,.59E-6,0
ONEWEB-0674,2023-029AP,2026-07-01T06:17:46.703904,13.14502839,.00015871,87.8960,286.9118,96.0650,264.0660,0,U,55833,999,16126,-.63402778E-3,-.222E-5,0
ONEWEB-0675,2023-029AQ,2026-07-01T21:58:35.714496,13.19734521,.00023234,87.9182,302.0432,100.8719,259.2675,0,U,55834,999,16086,.21369431E-2,.869E-5,0
ONEWEB-0720,2023-029AR,2026-07-01T07:13:49.783296,13.19725047,.00018603,87.9180,302.1657,109.6378,250.4955,0,U,55835,999,16070,.11178567E-3,.58E-6,0
ONEWEB-0537,2023-043A,2026-07-01T20:41:17.678688,13.16593996,.00022605,87.9084,225.8571,93.1725,266.9665,0,U,56046,999,16089,-.11127425E-3,-.3E-6,0
ONEWEB-0538,2023-043B,2026-07-01T20:32:10.235328,13.16593681,.00022566,87.9088,225.8609,100.2107,259.9279,0,U,56047,999,16090,-.16582423E-3,-.51E-6,0
ONEWEB-0546,2023-043C,2026-07-01T20:13:55.825536,13.16593857,.0002566,87.9087,225.8635,84.7680,275.3744,0,U,56048,999,16089,-.46579748E-3,-.165E-5,0
ONEWEB-0547,2023-043D,2026-07-01T20:34:50.776032,13.21826357,.00021112,87.9250,241.0555,103.0011,257.1359,0,U,56049,999,16016,.95694351E-4,.53E-6,0
ONEWEB-0548,2023-043E,2026-07-01T20:49:15.952800,13.16594023,.0001694,87.9082,225.8545,86.1231,274.0094,0,U,56050,999,16089,.4467766E-3,.184E-5,0
ONEWEB-0549,2023-043F,2026-07-01T22:15:22.664160,13.21826248,.00023429,87.9242,241.0474,104.2518,255.8876,0,U,56051,999,16017,.76367505E-4,.45E-6,0
ONEWEB-0550,2023-043G,2026-07-01T21:56:00.792384,13.21826229,.00018327,87.9246,241.0476,98.2244,261.9098,0,U,56052,999,16017,.12334338E-3,.64E-6,0
ONEWEB-0551,2023-043H,2026-07-01T21:50:54.010176,13.15546672,.00022173,87.8999,256.2930,107.3747,252.7626,0,U,56053,999,15833,.26029198E-4,.23E-6,0
ONEWEB-0552,2023-043J,2026-07-01T21:48:42.822144,13.21825489,.00019658,87.9242,241.0541,102.9952,257.1402,0,U,56054,999,16017,-.11279643E-4,.8E-7,0
ONEWEB-0553,2023-043K,2026-07-01T20:23:02.961312,13.16593749,.00022557,87.9086,225.8624,86.7679,273.3710,0,U,56055,999,16090,-.36456302E-3,-.127E-5,0
ONEWEB-0554,2023-043L,2026-07-01T20:04:48.979200,13.16594963,.00016399,87.9083,225.8736,84.9642,275.1676,0,U,56056,999,16088,-.4051607E-5,.11E-6,0
ONEWEB-0555,2023-043M,2026-07-01T20:59:31.367904,13.16592912,.00024306,87.9088,225.8550,84.6936,275.4473,0,U,56057,999,16089,.14845831E-3,.7E-6,0
ONEWEB-0557,2023-043N,2026-07-01T19:30:36.386496,13.16594632,.00019657,87.9086,225.8770,57.7281,302.4040,0,U,56058,999,16088,.21051683E-3,.93E-6,0
ONEWEB-0558,2023-043P,2026-07-01T21:39:01.754496,13.21825002,.00023406,87.9243,241.0507,102.2324,257.9072,0,U,56059,999,16018,.97904527E-4,.53E-6,0
ONEWEB-0559,2023-043Q,2026-07-01T14:06:03.034368,13.21826358,.00020827,87.9249,241.1087,103.9783,256.1583,0,U,56060,999,16015,.31145941E-3,.142E-5,0
ONEWEB-0566,2023-043R,2026-07-01T21:12:22.574304,13.21827266,.00021717,87.9247,241.0477,106.6156,253.5216,0,U,56061,999,16017,.17748104E-3,.86E-6,0
ONEWEB-0568,2023-043S,2026-07-01T19:55:42.799872,13.16595018,.00022537,87.9088,225.8631,90.0282,270.1107,0,U,56062,999,16090,.28056671E-4,.24E-6,0
ONEWEB-0574,2023-043T,2026-07-01T21:02:43.024704,13.21825252,.00019588,87.9252,241.0533,92.6591,267.4767,0,U,56063,999,16021,.37346867E-3,.167E-5,0
ONEWEB-0575,2023-043U,2026-07-01T08:49:58.096992,13.16595257,.00019665,87.9090,225.9511,83.2719,276.8636,0,U,56064,999,16083,-.141153E-3,-.41E-6,0
ONEWEB-0576,2023-043V,2026-07-01T21:08:39.009120,13.16594785,.00019862,87.9087,225.8578,87.9495,272.1863,0,U,56065,999,16089,.38510772E-3,.16E-5,0
ONEWEB-0577,2023-043W,2026-07-01T19:28:21.028800,13.16594605,.00017319,87.9091,225.8692,75.1717,284.9606,0,U,56066,999,16091,-.47653376E-4,-.5E-7,0
