ONEWEB-0667             
1 55827U 23029AH  26182.64870112  .00000107  00000+0  23118-3 0  9996
2 55827  87.9201 271.5499 0001842 101.9261 258.2079 13.20772410163053
ONEWEB-0669             
1 55828U 23029AJ  26182.64364454  .00000013  00000+0  63011-6 0  9999
2 55828  87.9195 271.5607 0001935  84.0422 276.0932 13.20773080163050
ONEWEB-0670             
1 55829U 23029AK  26182.29407393  .00000166  00000+0  41256-3 0  9994
2 55829  87.8964 286.9286 0001548  98.4814 261.6491 13.14501131161283
ONEWEB-0671             
1 55830U 23029AL  26182.77196233  .00000001  00000+0 -30983-4 0  9992
2 55830  87.9185 302.0706 0001776 103.3488 256.7843 13.19725665160824
ONEWEB-0672             
1 55831U 23029AM  26182.94161137  .00000058  00000+0  10960-3 0  9990
2 55831  87.9196 271.4951 0002198  94.8607 265.2777 13.20772610163091
ONEWEB-0673             
1 55832U 23029AN  26182.74904921  .00000059  00000+0  11495-3 0  9990
2 55832  87.9190 302.0679 0001792 101.4463 258.6871 13.19724786160826
ONEWEB-0674             
1 55833U 23029AP  26182.26234611 -.00000222  00000+0 -63403-3 0  9990
2 55833  87.8960 286.9118 0001587  96.0650 264.0660 13.14502839161262
ONEWEB-0675             
1 55834U 23029AQ  26182.91569114  .00000869  00000+0  21369-2 0  9991
2 55834  87.9182 302.0432 0002323 100.8719 259.2675 13.19734521160865
ONEWEB-0720             
1 55835U 23029AR  26182.30127064  .00000058  00000+0  11179-3 0  9998
2 55835  87.9180 302.1657 0001860 109.6378 250.4955 13.19725047160707
ONEWEB-0537             
1 56046U 23043A   26182.86201017 -.00000030  00000+0 -11127-3 0  9996
2 56046  87.9084 225.8571 0002260  93.1725 266.9665 13.16593996160892
ONEWEB-0538             
1 56047U 23043B   26182.85567402 -.00000051  00000+0 -16582-3 0  9992
2 56047  87.9088 225.8609 0002256 100.2107 259.9279 13.16593681160904
ONEWEB-0546             
1 56048U 23043C   26182.84300724 -.00000165  00000+0 -46580-3 0  9991
2 56048  87.9087 225.8635 0002566  84.7680 275.3744 13.16593857160891
ONEWEB-0547             
1 56049U 23043D   26182.85753213  .00000053  00000+0  95694-4 0  9993
2 56049  87.9250 241.0555 0002111 103.0011 257.1359 13.21826357160164
ONEWEB-0548             
1 56050U 23043E   26182.86754575  .00000184  00000+0  44678-3 0  9998
2 56050  87.9082 225.8545 0001694  86.1231 274.0094 13.16594023160898
ONEWEB-0549             
1 56051U 23043F   26182.92734565  .00000045  00000+0  76368-4 0  9991
2 56051  87.9242 241.0474 0002342 104.2518 255.8876 13.21826248160178
ONEWEB-0550             
1 56052U 23043G   26182.91389806  .00000064  00000+0  12334-3 0  9998
2 56052  87.9246 241.0476 0001832  98.2244 261.9098 13.21826229160179
ONEWEB-0551             
1 56053U 23043H   26182.91034734  .00000023  00000+0  26029-4 0  9998
2 56053  87.8999 256.2930 0002217 107.3747 252.7626 13.15546672158339
ONEWEB-0552             
1 56054U 23043J   26182.90882896  .00000008  00000+0 -11280-4 0  9995
2 56054  87.9242 241.0541 0001965 102.9952 257.1402 13.21825489160179
ONEWEB-0553             
1 56055U 23043K   26182.84933983 -.00000127  00000+0 -36456-3 0  9997
2 56055  87.9086 225.8624 0002255  86.7679 273.3710 13.16593749160904
ONEWEB-0554             
1 56056U 23043L   26182.83667800  .00000011  00000+0 -40516-5 0  9994
2 56056  87.9083 225.8736 0001639  84.9642 275.1676 13.16594963160888
ONEWEB-0555             
1 56057U 23043M   26182.87466861  .00000070  00000+0  14846-3 0  9992
2 56057  87.9088 225.8550 0002430  84.6936 275.4473 13.16592912160892
ONEWEB-0557             
1 56058U 23043N   26182.81292114  .00000093  00000+0  21052-3 0  9997
2 56058  87.9086 225.8770 0001965  57.7281 302.4040 13.16594632160882
ONEWEB-0558             
1 56059U 23043P   26182.90210364  .00000053  00000+0  97905-4 0  9992
2 56059  87.9243 241.0507 0002340 102.2324 257.9072 13.21825002160184
ONEWEB-0559             
1 56060U 23043Q   26182.58753512  .00000142  00000+0  31146-3 0  9998
2 56060  87.9249 241.1087 0002082 103.9783 256.1583 13.21826358160156
ONEWEB-0566             
1 56061U 23043R   26182.88359461  .00000086  00000+0  17748-3 0  9996
2 56061  87.9247 241.0477 0002171 106.6156 253.5216 13.21827266160175
ONEWEB-0568             
1 56062U 23043S   26182.83035648  .00000024  00000+0  28057-4 0  9998
2 56062  87.9088 225.8631 0002253  90.0282 270.1107 13.16595018160904
ONEWEB-0574             
1 56063U 23043T   26182.87688686  .00000167  00000+0  37347-3 0  9998
2 56063  87.9252 241.0533 0001958  92.6591 267.4767 13.21825252160218
ONEWEB-0575             
1 56064U 23043U   26182.36803353 -.00000041  00000+0 -14115-3 0  9994
2 56064  87.9090 225.9511 0001966  83.2719 276.8636 13.16595257160833
ONEWEB-0576             
1 56065U 23043V   26182.88100705  .00000160  00000+0  38511-3 0  9999
2 56065  87.9087 225.8578 0001986  87.9495 272.1863 13.16594785160898
ONEWEB-0577             
1 56066U 23043W   26182.81135450 -.00000005  00000+0 -47653-4 0  9996
2 56066  87.9091 225.8692 0001731  75.1717 284.9606 13.16594605160915
